GLOBAL-2                
1 43812U 18099BG  26188.17070325  .00002583  00000+0  16805-3 0  9995
2 43812  97.3550 223.8530 0007642  88.6043 271.6062 15.08797230414926
GLOBAL-4                
1 44499U 19054E   26188.17980438  .00047212  00000+0  44452-3 0  9991
2 44499  45.0043 120.8797 0004270 139.7591 220.3623 15.66393813383490
GLOBAL-9                
1 47971U 21023G   26188.20670809  .00016065  00000+0  31354-3 0  9999
2 47971  44.9802 137.9417 0002639 104.7424 255.3759 15.47367821298044
GLOBAL-14               
1 49469U 21106A   26188.62664382  .00017359  00000+0  28867-3 0  9992
2 49469  42.0027 169.5202 0016341 172.3093 187.8005 15.51556571261306
GLOBAL-12               
1 49772U 21115BA  26188.32942991  .00027653  00000+0  41160-3 0  9990
2 49772  53.1957 307.6011 0002603  70.1313 289.9979 15.54947504259031
GLOBAL-13               
1 49773U 21115BB  26188.67149566  .00014598  00000+0  29346-3 0  9992
2 49773  53.1978 317.1540 0001463 148.3296 211.7801 15.46900142258932
GLOBAL-17               
1 49949U 21120A   26188.67069821  .00020546  00000+0  31893-3 0  9998
2 49949  41.9951 287.1403 0013973  33.0698 327.1018 15.53418345258087
GLOBAL-16               
1 49950U 21120B   26188.71236655  .00017719  00000+0  29879-3 0  9995
2 49950  41.9954 291.0154 0012242  22.7157 337.4226 15.51218502258033
GLOBAL-18               
1 52196U 22034B   26187.89934840  .00013792  00000+0  27699-3 0  9990
2 52196  52.9802 162.3799 0004110   1.2196 358.8819 15.46973117240016
GLOBAL-19               
1 55982U 23041B   26187.12268466  .00014081  00000+0  36803-3 0  9994
2 55982  42.0015  91.4283 0008033 156.0579 204.0636 15.38514598184842
GLOBAL-5                
1 55983U 23041C   26187.93442670  .00010661  00000+0  28027-3 0  9994
2 55983  42.0002  86.2185 0007065 156.0960 204.0209 15.38543185184974
